FORMOSAT 7-3            
1 44343U 19036E   26068.82630502  .00006445  00000+0  37650-3 0  9997
2 44343  23.9981 141.9797 0001061 150.4425 209.6139 15.08933962368215
STARLINK-3647           
1 51994U 22025AQ  26068.26756811  .00000470  00000+0  47615-4 0  9994
2 51994  53.2185  21.0125 0001544 111.2263 248.8895 15.08838218220850
